CTC2_L_00558008-07
1 87939U 22226KT  26070.40850694  .00000000  00000+0  00000-0 0  9990
2 87939  98.9000  84.0000 0000000   0.0000 312.0000 14.06899812    11
CTC2_L_00558008-08
1 87940U 23192OS  26070.40850694  .00000000  00000+0  00000-0 0  9995
2 87940  98.9000  84.0000 0000000   0.0000 357.0000 14.06899812    12
CTC2_L_00558009-01
1 87941U 26958YB  26070.40850694  .00000000  00000+0  00000-0 0  9999
2 87941  98.9000  96.0000 0000000   0.0000  48.0000 14.06899812    13
CTC2_L_00558009-02
1 87942U 26523IB  26070.40850694  .00000000  00000+0  00000-0 0  9998
2 87942  98.9000  96.0000 0000000   0.0000  93.0000 14.06899812    14
CTC2_L_00558009-03
1 87943U 24551SC  26070.40850694  .00000000  00000+0  00000-0 0  9998
2 87943  98.9000  96.0000 0000000   0.0000 138.0000 14.06899812    15
CTC2_L_00558009-04
1 87944U 25058HU  26070.40850694  .00000000  00000+0  00000-0 0  9992
2 87944  98.9000  96.0000 0000000   0.0000 183.0000 14.06899812    16
CTC2_L_00558009-05
1 87945U 22782FB  26070.40850694  .00000000  00000+0  00000-0 0  9994
2 87945  98.9000  96.0000 0000000   0.0000 228.0000 14.06899812    17
CTC2_L_00558009-06
1 87946U 23931YU  26070.40850694  .00000000  00000+0  00000-0 0  9992
2 87946  98.9000  96.0000 0000000   0.0000 273.0000 14.06899812    18
CTC2_L_00558009-07
1 87947U 24847CX  26070.40850694  .00000000  00000+0  00000-0 0  9990
2 87947  98.9000  96.0000 0000000   0.0000 318.0000 14.06899812    19
CTC2_L_00558009-08
1 87948U 26668AX  26070.40850694  .00000000  00000+0  00000-0 0  9994
2 87948  98.9000  96.0000 0000000   0.0000   3.0000 14.06899812    11
CTC2_L_00558010-01
1 87949U 24899IX  26070.40850694  .00000000  00000+0  00000-0 0  9999
2 87949  98.9000 108.0000 0000000   0.0000  54.0000 14.06899812    12
CTC2_L_00558010-02
1 87950U 22905GB  26070.40850694  .00000000  00000+0  00000-0 0  9997
2 87950  98.9000 108.0000 0000000   0.0000  99.0000 14.06899812    13
CTC2_L_00558010-03
1 87951U 23788PC  26070.40850694  .00000000  00000+0  00000-0 0  9998
2 87951  98.9000 108.0000 0000000   0.0000 144.0000 14.06899812    15
CTC2_L_00558010-04
1 87952U 25792MH  26070.40850694  .00000000  00000+0  00000-0 0  9996
2 87952  98.9000 108.0000 0000000   0.0000 189.0000 14.06899812    15
CTC2_L_00558010-05
1 87953U 25703GB  26070.40850694  .00000000  00000+0  00000-0 0  9999
2 87953  98.9000 108.0000 0000000   0.0000 234.0000 14.06899812    17
CTC2_L_00558010-06
1 87954U 26917PR  26070.40850694  .00000000  00000+0  00000-0 0  9998
2 87954  98.9000 108.0000 0000000   0.0000 279.0000 14.06899812    17
CTC2_L_00558010-07
1 87955U 22576XJ  26070.40850694  .00000000  00000+0  00000-0 0  9996
2 87955  98.9000 108.0000 0000000   0.0000 324.0000 14.06899812    19
CTC2_L_00558010-08
1 87956U 24399CT  26070.40850694  .00000000  00000+0  00000-0 0  9992
2 87956  98.9000 108.0000 0000000   0.0000   9.0000 14.06899812    10
CTC2_L_00558011-01
1 87957U 22226OK  26070.40850694  .00000000  00000+0  00000-0 0  9990
2 87957  98.9000 120.0000 0000000   0.0000  60.0000 14.06899812    12
CTC2_L_00558011-02
1 87958U 22097GA  26070.40850694  .00000000  00000+0  00000-0 0  9997
2 87958  98.9000 120.0000 0000000   0.0000 105.0000 14.06899812    13
CTC2_L_00558011-03
1 87959U 26862SG  26070.40850694  .00000000  00000+0  00000-0 0  9992
2 87959  98.9000 120.0000 0000000   0.0000 150.0000 14.06899812    14
CTC2_L_00558011-04
1 87960U 23089MD  26070.40850694  .00000000  00000+0  00000-0 0  9992
2 87960  98.9000 120.0000 0000000   0.0000 195.0000 14.06899812    15
CTC2_L_00558011-05
1 87961U 24020PN  26070.40850694  .00000000  00000+0  00000-0 0  9999
2 87961  98.9000 120.0000 0000000   0.0000 240.0000 14.06899812    17
CTC2_L_00558011-06
1 87962U 23972WT  26070.40850694  .00000000  00000+0  00000-0 0  9995
2 87962  98.9000 120.0000 0000000   0.0000 285.0000 14.06899812    17
CTC2_L_00558011-07
1 87963U 22073PI  26070.40850694  .00000000  00000+0  00000-0 0  9997
2 87963  98.9000 120.0000 0000000   0.0000 330.0000 14.06899812    19
CTC2_L_00558011-08
1 87964U 23707BJ  26070.40850694  .00000000  00000+0  00000-0 0  9993
2 87964  98.9000 120.0000 0000000   0.0000  15.0000 14.06899812    10
CTC2_L_00558012-01
1 87965U 23448AW  26070.40850694  .00000000  00000+0  00000-0 0  9996
2 87965  98.9000 132.0000 0000000   0.0000  66.0000 14.06899812    10
CTC2_L_00558012-02
1 87966U 22343OP  26070.40850694  .00000000  00000+0  00000-0 0  9990
2 87966  98.9000 132.0000 0000000   0.0000 111.0000 14.06899812    12
CTC2_L_00558012-03
1 87967U 25128WQ  26070.40850694  .00000000  00000+0  00000-0 0  9995
2 87967  98.9000 132.0000 0000000   0.0000 156.0000 14.06899812    12
CTC2_L_00558012-04
1 87968U 23777DJ  26070.40850694  .00000000  00000+0  00000-0 0  9994
2 87968  98.9000 132.0000 0000000   0.0000 201.0000 14.06899812    14
CTC2_L_00558012-05
1 87969U 24374KN  26070.40850694  .00000000  00000+0  00000-0 0  9999
2 87969  98.9000 132.0000 0000000   0.0000 246.0000 14.06899812    14
CTC2_L_00558012-06
1 87970U 25931UP  26070.40850694  .00000000  00000+0  00000-0 0  9991
2 87970  98.9000 132.0000 0000000   0.0000 291.0000 14.06899812    16
CTC2_L_00558012-07
1 87971U 22259UW  26070.40850694  .00000000  00000+0  00000-0 0  9992
2 87971  98.9000 132.0000 0000000   0.0000 336.0000 14.06899812    17
CTC2_L_00558012-08
1 87972U 25329PW  26070.40850694  .00000000  00000+0  00000-0 0  9994
2 87972  98.9000 132.0000 0000000   0.0000  21.0000 14.06899812    19
CTC2_L_00558013-01
1 87973U 23232HH  26070.40850694  .00000000  00000+0  00000-0 0  9996
2 87973  98.9000 144.0000 0000000   0.0000  72.0000 14.06899812    19
CTC2_L_00558013-02
1 87974U 26948BU  26070.40850694  .00000000  00000+0  00000-0 0  9994
2 87974  98.9000 144.0000 0000000   0.0000 117.0000 14.06899812    10
CTC2_L_00558013-03
1 87975U 25878NB  26070.40850694  .00000000  00000+0  00000-0 0  9996
2 87975  98.9000 144.0000 0000000   0.0000 162.0000 14.06899812    11
CTC2_L_00558013-04
1 87976U 22259YU  26070.40850694  .00000000  00000+0  00000-0 0  9997
2 87976  98.9000 144.0000 0000000   0.0000 207.0000 14.06899812    12
CTC2_L_00558013-05
1 87977U 25049WW  26070.40850694  .00000000  00000+0  00000-0 0  9998
2 87977  98.9000 144.0000 0000000   0.0000 252.0000 14.06899812    13
CTC2_L_00558013-06
1 87978U 25806ZY  26070.40850694  .00000000  00000+0  00000-0 0  9990
2 87978  98.9000 144.0000 0000000   0.0000 297.0000 14.06899812    13
CTC2_L_00558013-07
1 87979U 26855Y   26070.40850694  .00000000  00000+0  00000-0 0  9996
2 87979  98.9000 144.0000 0000000   0.0000 342.0000 14.06899812    15
CTC2_L_00558013-08
1 87980U 23988WB  26070.40850694  .00000000  00000+0  00000-0 0  9992
2 87980  98.9000 144.0000 0000000   0.0000  27.0000 14.06899812    17
CTC2_L_00558014-01
1 87981U 24189QU  26070.40850694  .00000000  00000+0  00000-0 0  9997
2 87981  98.9000 156.0000 0000000   0.0000  78.0000 14.06899812    17
CTC2_L_00558014-02
1 87982U 23637PC  26070.40850694  .00000000  00000+0  00000-0 0  9995
2 87982  98.9000 156.0000 0000000   0.0000 123.0000 14.06899812    19
CTC2_L_00558014-03
1 87983U 25819MC  26070.40850694  .00000000  00000+0  00000-0 0  9990
2 87983  98.9000 156.0000 0000000   0.0000 168.0000 14.06899812    19
CTC2_L_00558014-04
1 87984U 26825OE  26070.40850694  .00000000  00000+0  00000-0 0  9999
2 87984  98.9000 156.0000 0000000   0.0000 213.0000 14.06899812    11
CTC2_L_00558014-05
1 87985U 22078FJ  26070.40850694  .00000000  00000+0  00000-0 0  9996
2 87985  98.9000 156.0000 0000000   0.0000 258.0000 14.06899812    11
CTC2_L_00558014-06
1 87986U 26304PG  26070.40850694  .00000000  00000+0  00000-0 0  9993
2 87986  98.9000 156.0000 0000000   0.0000 303.0000 14.06899812    13
CTC2_L_00558014-07
1 87987U 25042SU  26070.40850694  .00000000  00000+0  00000-0 0  9992
2 87987  98.9000 156.0000 0000000   0.0000 348.0000 14.06899812    13
CTC2_L_00558014-08
1 87988U 25632YJ  26070.40850694  .00000000  00000+0  00000-0 0  9998
2 87988  98.9000 156.0000 0000000   0.0000  33.0000 14.06899812    15
CTC2_L_00558015-01
1 87989U 23128HT  26070.40850694  .00000000  00000+0  00000-0 0  9997
2 87989  98.9000 168.0000 0000000   0.0000  84.0000 14.06899812    15
CTC2_L_00558015-02
1 87990U 22762DK  26070.40850694  .00000000  00000+0  00000-0 0  9992
2 87990  98.9000 168.0000 0000000   0.0000 129.0000 14.06899812    17
CTC2_L_00558015-03
1 87991U 22520CB  26070.40850694  .00000000  00000+0  00000-0 0  9995
2 87991  98.9000 168.0000 0000000   0.0000 174.0000 14.06899812    18
CTC2_L_00558015-04
1 87992U 24880MP  26070.40850694  .00000000  00000+0  00000-0 0  9997
2 87992  98.9000 168.0000 0000000   0.0000 219.0000 14.06899812    19
CTC2_L_00558015-05
1 87993U 24860TK  26070.40850694  .00000000  00000+0  00000-0 0  9996
2 87993  98.9000 168.0000 0000000   0.0000 264.0000 14.06899812    10
CTC2_L_00558015-06
1 87994U 23426ZF  26070.40850694  .00000000  00000+0  00000-0 0  9994
2 87994  98.9000 168.0000 0000000   0.0000 309.0000 14.06899812    11
CTC2_L_00558015-07
1 87995U 26547OX  26070.40850694  .00000000  00000+0  00000-0 0  9992
2 87995  98.9000 168.0000 0000000   0.0000 354.0000 14.06899812    12
CTC2_L_00558015-08
1 87996U 23813OW  26070.40850694  .00000000  00000+0  00000-0 0  9996
2 87996  98.9000 168.0000 0000000   0.0000  39.0000 14.06899812    13
CTC2_L_00558016-01
1 87997U 23652JP  26070.40850694  .00000000  00000+0  00000-0 0  9998
2 87997  98.9000 180.0000 0000000   0.0000  90.0000 14.06899812    15
CTC2_L_00558016-02
1 87998U 26594FU  26070.40850694  .00000000  00000+0  00000-0 0  9997
2 87998  98.9000 180.0000 0000000   0.0000 135.0000 14.06899812    16
CTC2_L_00558016-03
1 87999U 26920PM  26070.40850694  .00000000  00000+0  00000-0 0  9991
2 87999  98.9000 180.0000 0000000   0.0000 180.0000 14.06899812    17
CTC2_L_00558016-04
1 88000U 26759WG  26070.40850694  .00000000  00000+0  00000-0 0  9995
2 88000  98.9000 180.0000 0000000   0.0000 225.0000 14.06899812    11
